{
  "norad_id": 62665,
  "name": "JAY-D2",
  "history": [
    {
      "epoch": "2026-05-02T08:44:58.434144Z",
      "apogee_km": 503.45941576135283,
      "perigee_km": 495.8979452022304,
      "latitude_deg": 4.047377676377426e-05,
      "longitude_deg": -149.8865409132458,
      "height_km": 504.77197393227306,
      "semi_major_axis_km": 6877.815680481791,
      "eccentricity": 0.0005497,
      "inclination_deg": 97.3896,
      "raan_deg": 201.6406,
      "arg_perigee_deg": 122.0752,
      "mean_anomaly_deg": 238.1019,
      "mean_motion_rev_day": 15.22043142
    },
    {
      "epoch": "2026-05-03T19:27:42.695712Z",
      "apogee_km": 503.4249352684419,
      "perigee_km": 495.8593781960353,
      "latitude_deg": 7.83663968195718e-05,
      "longitude_deg": 49.424543849831444,
      "height_km": 504.52622193272384,
      "semi_major_axis_km": 6877.779156732238,
      "eccentricity": 0.00055,
      "inclination_deg": 97.3892,
      "raan_deg": 203.0617,
      "arg_perigee_deg": 118.3947,
      "mean_anomaly_deg": 241.7845,
      "mean_motion_rev_day": 15.22055266
    },
    {
      "epoch": "2026-05-04T19:07:45.050016Z",
      "apogee_km": 503.43894463553806,
      "perigee_km": 495.79913322749235,
      "latitude_deg": -5.2835176498760294e-05,
      "longitude_deg": 54.4120654328326,
      "height_km": 504.369178144698,
      "semi_major_axis_km": 6877.756038931515,
      "eccentricity": 0.0005554,
      "inclination_deg": 97.3891,
      "raan_deg": 204.031,
      "arg_perigee_deg": 115.8457,
      "mean_anomaly_deg": 244.3352,
      "mean_motion_rev_day": 15.2206294
    },
    {
      "epoch": "2026-05-05T18:47:46.957632Z",
      "apogee_km": 503.44371670142937,
      "perigee_km": 495.7420347865709,
      "latitude_deg": -4.408772740131216e-05,
      "longitude_deg": 59.40123493446708,
      "height_km": 504.22205969026555,
      "semi_major_axis_km": 6877.729875743999,
      "eccentricity": 0.0005599,
      "inclination_deg": 97.3889,
      "raan_deg": 205.0001,
      "arg_perigee_deg": 113.6478,
      "mean_anomaly_deg": 246.5346,
      "mean_motion_rev_day": 15.22071625
    },
    {
      "epoch": "2026-05-06T20:02:28.567104Z",
      "apogee_km": 503.45621561975713,
      "perigee_km": 495.68853065373696,
      "latitude_deg": 2.5772269008071783e-05,
      "longitude_deg": 40.724778249043865,
      "height_km": 504.04928689181725,
      "semi_major_axis_km": 6877.709373136747,
      "eccentricity": 0.0005647,
      "inclination_deg": 97.3887,
      "raan_deg": 206.0338,
      "arg_perigee_deg": 111.0135,
      "mean_anomaly_deg": 249.1706,
      "mean_motion_rev_day": 15.22078431
    }
  ]
}